{
  "type": "FeatureCollection",
  "features": [
    {
      "type": "Feature",
      "properties": {},
      "geometry": {
        "type": "Polygon",
        "coordinates": [
          [
            [
              0,
              0
            ],
            [
              5,
              0
            ],
            [
              5,
              5
            ],
            [
              0,
              5
            ]
          ]
        ]
      }
    },
    {
      "type": "Thing",
      "properties": {},
      "geometry": {
        "type": "Point",
        "coordinates": [
          1,
          2
        ]
      }
    },
    {
      "type": "Feature",
      "properties": {},
      "geometry": {
        "type": "Point",
        "coordinates": [
          200.0,
          95.0
        ]
      }
    }
  ]
}
