{"type":"FeatureCollection","name":"polys_a","featureClass":"Polygon","crs":{"type":"name","properties":{"name":"EPSG:32651"}},"idField":"id","features":[{"type":"Feature","id":"A1","properties":{"id":"A1","value":10,"grp":"A"},"geometry":{"type":"Polygon","coordinates":[[[499957.0,3999923.0],[500077.0,3999923.0],[500077.0,4000043.0],[499957.0,4000043.0],[499957.0,3999923.0]]]}},{"type":"Feature","id":"A2","properties":{"id":"A2","value":20,"grp":"B"},"geometry":{"type":"Polygon","coordinates":[[[499969.0,3999879.0],[500129.0,3999879.0],[500129.0,4000039.0],[499969.0,4000039.0],[499969.0,3999879.0]]]}},{"type":"Feature","id":"A3","properties":{"id":"A3","value":30,"grp":"A"},"geometry":{"type":"Polygon","coordinates":[[[499981.0,3999835.0],[500181.0,3999835.0],[500181.0,4000035.0],[499981.0,4000035.0],[499981.0,3999835.0]]]}}]}
