{"type":"FeatureCollection","name":"polys_b","featureClass":"Polygon","crs":{"type":"name","properties":{"name":"EPSG:32651"}},"idField":"id","features":[{"type":"Feature","id":"B1","properties":{"id":"B1","value":10,"grp":"A"},"geometry":{"type":"Polygon","coordinates":[[[499963.0,3999905.0],[500103.0,3999905.0],[500103.0,4000045.0],[499963.0,4000045.0],[499963.0,3999905.0]]]}},{"type":"Feature","id":"B2","properties":{"id":"B2","value":20,"grp":"B"},"geometry":{"type":"Polygon","coordinates":[[[499975.0,3999861.0],[500155.0,3999861.0],[500155.0,4000041.0],[499975.0,4000041.0],[499975.0,3999861.0]]]}}]}
