{"type":"FeatureCollection","name":"points","featureClass":"Point","crs":{"type":"name","properties":{"name":"EPSG:32651"}},"idField":"id","features":[{"type":"Feature","id":"S1","properties":{"id":"S1","value":10,"grp":"A"},"geometry":{"type":"Point","coordinates":[500013.0,3999987.0]}},{"type":"Feature","id":"S2","properties":{"id":"S2","value":20,"grp":"B"},"geometry":{"type":"Point","coordinates":[500029.0,3999979.0]}},{"type":"Feature","id":"S3","properties":{"id":"S3","value":30,"grp":"A"},"geometry":{"type":"Point","coordinates":[500045.0,3999963.0]}},{"type":"Feature","id":"S4","properties":{"id":"S4","value":40,"grp":"B"},"geometry":{"type":"Point","coordinates":[500061.0,3999947.0]}},{"type":"Feature","id":"S5","properties":{"id":"S5","value":50,"grp":"A"},"geometry":{"type":"Point","coordinates":[500077.0,3999931.0]}},{"type":"Feature","id":"S6","properties":{"id":"S6","value":60,"grp":"B"},"geometry":{"type":"Point","coordinates":[500093.0,3999915.0]}}]}
